[{"name":"Adaikkakuzhi","pincode":"629153","lat":8.3441107,"lng":77.1815747,"_id":"d5d341a9-701c-4f46-965d-0f90230fb589","fee":50,"isActive":true},{"name":"Agasteeswaram","pincode":"629701","lat":8.0972734,"lng":77.519596,"_id":"f1d0579d-2b93-4856-9606-d297be6c47ec","fee":50,"isActive":true},{"name":"Alagiamandapam","pincode":"629167","lat":8.3223876,"lng":77.1729465,"_id":"8c2ce1fb-acdc-4d2d-8d4c-48203b436bb9","fee":50,"isActive":true},{"name":"Alampara","pincode":"629170","lat":8.36495,"lng":77.17072,"_id":"61497e4f-c6d5-4ce8-8289-b11a999897c5","fee":50,"isActive":true},{"name":"Alanchi","pincode":"629159","lat":8.3441057,"lng":77.1815797,"_id":"e64f043c-e295-4626-8afa-896173b81672","fee":50,"isActive":true},{"name":"Alancholai","pincode":"629101","lat":8.3441087,"lng":77.1815767,"_id":"57136c63-08ee-4415-b588-190eb2b1d3c3","fee":50,"isActive":true},{"name":"Alancode","pincode":"629802","lat":8.20481,"lng":77.27235,"_id":"f686b9ee-81f6-44fd-82d9-8fec1a2c7229","fee":50,"isActive":true},{"name":"Aloor","pincode":"629801","lat":8.19537,"lng":77.3774,"_id":"f32e0df8-b7d7-4dfc-a1e4-cd52bbcc595f","fee":50,"isActive":true},{"name":"Ammandivilai","pincode":"629204","lat":8.3223856,"lng":77.1729485,"_id":"0214e2cd-c24f-4ad4-8d0a-0bfa6fe790e6","fee":50,"isActive":true},{"name":"Anandanadarkudy","pincode":"629201","lat":8.0978036,"lng":77.5203642,"_id":"04eaaffb-9bc9-494f-a230-8a031aa1133c","fee":50,"isActive":true},{"name":"Andirapuram","pincode":"629851","lat":8.231211,"lng":77.5060328,"_id":"a2e12cfd-d7a0-4176-a0be-536225c07a0a","fee":50,"isActive":true},{"name":"Anducode","pincode":"629168","lat":8.3441067,"lng":77.1815787,"_id":"b620042d-821a-44fe-92ce-9a30cc1b76f0","fee":50,"isActive":true},{"name":"Anjugramam","pincode":"629401","lat":8.16704,"lng":77.53121,"_id":"ffc931de-f46f-4c9a-b605-4b7d00f0d0f3","fee":50,"isActive":true},{"name":"Aralvaymoli","pincode":"629301","lat":8.2473805,"lng":77.5089,"_id":"1836eca6-f0fd-4454-b417-9c52bb6f27b2","fee":50,"isActive":true},{"name":"Arukani","pincode":"629101","lat":8.3441057,"lng":77.1815797,"_id":"0f3a7ef3-5b8d-46bf-9441-f9f1423fdd1b","fee":50,"isActive":true},{"name":"Arumanai","pincode":"629151","lat":8.3223816,"lng":77.1729525,"_id":"f39de173-9f99-4076-91f7-cc3137f9b308","fee":50,"isActive":true},{"name":"Arumanallur","pincode":"629851","lat":8.231211,"lng":77.5060328,"_id":"f221b2dd-5077-4815-8b00-3bc03b38862e","fee":50,"isActive":true},{"name":"Aruvikkarai","pincode":"629177","lat":8.3223846,"lng":77.1729495,"_id":"dc5bfac9-ceb5-4179-bbc3-d8a41f040127","fee":50,"isActive":true},{"name":"Asaripallam","pincode":"629201","lat":8.1811906,"lng":77.3943045,"_id":"fa76b562-1b6e-46d2-927c-2f68bdc9f947","fee":50,"isActive":true},{"name":"Asiramam","pincode":"629704","lat":8.0977966,"lng":77.5203712,"_id":"ff0fb635-3098-4d4f-8926-15a485ac7d4f","fee":50,"isActive":true},{"name":"Attur","pincode":"629191","lat":8.3223786,"lng":77.1729555,"_id":"ebb16bf2-e70d-4026-ab93-28064bc49bde","fee":50,"isActive":true},{"name":"Azhakamparai","pincode":"629252","lat":8.16075,"lng":77.3169,"_id":"a73935ce-f056-403f-b3e3-38d8250487e3","fee":50,"isActive":true},{"name":"Azhakappapuram","pincode":"629401","lat":8.16704,"lng":77.53121,"_id":"9be2cec5-c3a4-4b27-9e1e-11bbc293fa60","fee":50,"isActive":true},{"name":"Azhakiapandipuram","pincode":"629851","lat":8.231217,"lng":77.5060268,"_id":"abc8f534-328a-44ad-a4c7-f8aa58461de6","fee":50,"isActive":true},{"name":"Azhikkal","pincode":"629202","lat":8.0977966,"lng":77.5203712,"_id":"6ba50560-b8f1-494e-b536-8c0bed8d1a4b","fee":50,"isActive":true},{"name":"Bethelpuram","pincode":"629803","lat":8.3223846,"lng":77.1729495,"_id":"512944b4-6b4a-45ce-994a-616d4883936e","fee":50,"isActive":true},{"name":"Bhoothapandy","pincode":"629852","lat":8.231212,"lng":77.5060318,"_id":"6867152a-37dd-4318-bcee-bee886239db4","fee":50,"isActive":true},{"name":"Catherin Booth Hospital","pincode":"629001","lat":8.20481,"lng":77.4283,"_id":"50ec19d5-fb56-48d2-867c-f6fc45512d2a","fee":50,"isActive":true},{"name":"Chathancode","pincode":"629153","lat":8.3451355,"lng":77.182038,"_id":"8f0c97d9-5042-4b59-a815-4d4e8ea72384","fee":50,"isActive":true},{"name":"Chemparuthivilai","pincode":"629166","lat":8.2357412,"lng":77.3525259,"_id":"de067595-bd0c-4caa-8c27-00b80573b399","fee":50,"isActive":true},{"name":"Chemponvilai","pincode":"629804","lat":8.3223856,"lng":77.1729485,"_id":"61515f1f-4fb8-401e-b922-107350a6d4c5","fee":50,"isActive":true},{"name":"Chenbagaramanputhur","pincode":"629304","lat":8.2473885,"lng":77.508892,"_id":"d0e08fc6-add7-4bcc-8bb3-c24f4b9ad22f","fee":50,"isActive":true},{"name":"Chenkody","pincode":"629177","lat":8.2357332,"lng":77.3525339,"_id":"b96de5d8-bd2b-4eb4-9dae-44f7ec402472","fee":50,"isActive":true},{"name":"Cherupallur","pincode":"629161","lat":8.20377,"lng":77.33415,"_id":"4a641bf1-5b43-4337-ba1f-9c5903efd918","fee":50,"isActive":true},{"name":"Cheruvallur","pincode":"629152","lat":8.3451355,"lng":77.182038,"_id":"3430e205-15b7-410e-9c2c-1b552ae3747e","fee":50,"isActive":true},{"name":"Chitharal","pincode":"629151","lat":8.3441077,"lng":77.1815777,"_id":"188d989b-dbc1-4a29-bfdf-5b096ee64a0c","fee":50,"isActive":true},{"name":"Chittardam Colony","pincode":"629161","lat":8.44849,"lng":77.2756977,"_id":"079e1fd9-6367-4552-8b5b-14814a4791fc","fee":50,"isActive":true},{"name":"Chunkankadai","pincode":"629807","lat":8.3223856,"lng":77.1729485,"_id":"ea358796-c121-4d3f-a4dd-4f4bc72b4b54","fee":50,"isActive":true},{"name":"Colachel","pincode":"629251","lat":8.3223816,"lng":77.1729525,"_id":"6f04e677-ab3b-4694-95ba-0799d92d5e32","fee":50,"isActive":true},{"name":"Colachel Port","pincode":"629251","lat":8.1786329,"lng":77.2560844,"_id":"0a492344-750a-4547-9fa2-61f2435fa6af","fee":50,"isActive":true},{"name":"Derisanamcope","pincode":"629851","lat":8.231213,"lng":77.5060308,"_id":"60e4096d-e70e-47ea-98ea-42c6b74890ad","fee":50,"isActive":true},{"name":"Devakulam","pincode":"629704","lat":8.0977976,"lng":77.5203702,"_id":"06a220b7-d193-4220-8fcc-d952af2b1e2d","fee":50,"isActive":true},{"name":"Eathamozhi","pincode":"629501","lat":8.1204436,"lng":77.3884151,"_id":"82e92752-7744-40dd-b626-fa2978ea8b7c","fee":50,"isActive":true},{"name":"Edalakudy","pincode":"629051","lat":8.0977976,"lng":77.5203702,"_id":"3886cf69-cdbe-4934-8862-1849f293c6c1","fee":50,"isActive":true},{"name":"Elavuvilai","pincode":"629171","lat":8.3441087,"lng":77.1815767,"_id":"b90e8132-b0a3-410a-b69f-a21cb609e18e","fee":50,"isActive":true},{"name":"Enayam","pincode":"629193","lat":8.2180977,"lng":77.1884093,"_id":"79a823d3-8c92-467f-81a9-45eb166a23c7","fee":50,"isActive":true},{"name":"Enayamputhenthurai","pincode":"629193","lat":8.3441167,"lng":77.1815687,"_id":"72c31000-f5ab-4ce4-8919-6eda9c60ed22","fee":50,"isActive":true},{"name":"Erachakulam","pincode":"629902","lat":8.231211,"lng":77.5060328,"_id":"1e39934d-a4bb-4cf4-9824-155a84c046b6","fee":50,"isActive":true},{"name":"Eravipudurkadai","pincode":"629158","lat":8.24887,"lng":77.29465,"_id":"450f1f51-9616-44be-bf0e-7d3fc41dd32e","fee":50,"isActive":true},{"name":"Eraviputhur","pincode":"629402","lat":8.23738,"lng":77.33989,"_id":"5bcadabb-be3d-4ff5-9a52-1346c3f80dbe","fee":50,"isActive":true},{"name":"Erumbukadu","pincode":"629004","lat":8.0977986,"lng":77.5203692,"_id":"df37a2e2-fb5d-4ecd-816e-9f9a6dc808bf","fee":50,"isActive":true},{"name":"Fathima Nagar","pincode":"629160","lat":8.2978,"lng":77.11955,"_id":"1fad8ea9-9568-4f27-a9a8-4e91efc717a1","fee":50,"isActive":true},{"name":"Friday Market","pincode":"629203","lat":8.20166,"lng":77.45055,"_id":"6170b231-34fb-4a5c-9fd2-fc4b2107a598","fee":50,"isActive":true},{"name":"Ganapathipuram","pincode":"629502","lat":8.1922362,"lng":77.4133193,"_id":"d5cca90c-d514-4b49-9e2c-08e8de7641b5","fee":50,"isActive":true},{"name":"Gnaramvilai","pincode":"629165","lat":8.3441097,"lng":77.1815757,"_id":"71b47b20-48a5-4739-a309-f48372fb12c0","fee":50,"isActive":true},{"name":"Idaikkode","pincode":"629152","lat":8.3441077,"lng":77.1815777,"_id":"fb79b33b-11f2-4719-88fd-202409742c8f","fee":50,"isActive":true},{"name":"Ilanchirai","pincode":"629152","lat":8.3441087,"lng":77.1815767,"_id":"20ef2a14-cf1c-4e1b-a343-956325ce4069","fee":50,"isActive":true},{"name":"Irenipuram","pincode":"629197","lat":8.3441087,"lng":77.1815767,"_id":"2f57ccc6-17da-4f28-a302-b03d3b65a7f2","fee":50,"isActive":true},{"name":"Irulappapuram","pincode":"629002","lat":8.0978016,"lng":77.5203662,"_id":"f0a27533-a07f-4431-870f-c242f75feab0","fee":50,"isActive":true},{"name":"Isanthimangalam","pincode":"629852","lat":8.231215,"lng":77.5060288,"_id":"c87b4572-b885-41b2-874a-8a0b27a58a8b","fee":50,"isActive":true},{"name":"James Town","pincode":"629504","lat":8.1576,"lng":77.40605,"_id":"3809016d-24b0-4c4e-af30-7ddcb5ec78b1","fee":50,"isActive":true},{"name":"Kadiyapattanam","pincode":"629253","lat":8.3223876,"lng":77.1729465,"_id":"2f415597-2139-4240-a84c-c48251d58fa5","fee":50,"isActive":true},{"name":"Kadukkarai","pincode":"629855","lat":8.23121,"lng":77.5060338,"_id":"65a8166f-0b6d-4a0e-9810-59a9abfbcc8d","fee":50,"isActive":true},{"name":"Kaliakkavilai","pincode":"629153","lat":8.3509226,"lng":77.1748546,"_id":"f3eaa0ad-750f-4d66-aa3a-66f992017181","fee":50,"isActive":true},{"name":"Kaliyal","pincode":"629101","lat":8.3441057,"lng":77.1815797,"_id":"5de7ee7c-ab6f-42bf-9cb2-d8ba7e587dcc","fee":50,"isActive":true},{"name":"Kallankuzhi","pincode":"629166","lat":8.3223846,"lng":77.1729495,"_id":"8a7beabc-a2d9-4069-90c9-c4a8d7edfc4b","fee":50,"isActive":true},{"name":"Kallukoottam","pincode":"629808","lat":8.3223856,"lng":77.1729485,"_id":"4c5629e7-5fde-4183-92eb-e1dcf84261ce","fee":50,"isActive":true},{"name":"Kalpadi","pincode":"629204","lat":8.14502,"lng":77.43145,"_id":"211c96cc-0143-4e8c-a012-18bdaffa927c","fee":50,"isActive":true},{"name":"Kandanvilai","pincode":"629810","lat":8.3223846,"lng":77.1729495,"_id":"80f3a09a-f0b0-4cc9-870b-94ffd426aa19","fee":50,"isActive":true},{"name":"Kaniyakulam","pincode":"629003","lat":8.18278,"lng":77.43145,"_id":"3a502cbf-64c9-4f3b-9bdb-690e1c8c41bb","fee":50,"isActive":true},{"name":"Kanjampuram","pincode":"629154","lat":8.2721215,"lng":77.1513814,"_id":"2c1e009e-703c-43cb-86f6-abf4eaa64dbe","fee":50,"isActive":true},{"name":"Kanjikuzhi","pincode":"629169","lat":8.34015,"lng":77.21505,"_id":"c7ef796e-7840-44a0-8226-014bbc7aea05","fee":50,"isActive":true},{"name":"Kanjiracode","pincode":"629155","lat":8.3441097,"lng":77.1815757,"_id":"37ece1b5-2760-4b72-9eff-24b3b30f9748","fee":50,"isActive":true},{"name":"Kannanore","pincode":"629158","lat":8.3223826,"lng":77.1729515,"_id":"0e646ae6-06cc-4ed3-80d4-a27e1ebb9fed","fee":50,"isActive":true},{"name":"Kannattuvilai","pincode":"629802","lat":8.3223866,"lng":77.1729475,"_id":"ba5ec53f-d981-4126-be11-1db2bf166e7f","fee":50,"isActive":true},{"name":"Kanniyakumari","pincode":"629702","lat":8.0866806,"lng":77.5490225,"_id":"926cfdf4-2bc7-4a02-a3c0-3ebdef0b0fe4","fee":50,"isActive":true},{"name":"Kannumamoodu","pincode":"629170","lat":8.3441107,"lng":77.1815747,"_id":"6d7f3e3e-4198-4a9b-a60c-5990097988a5","fee":50,"isActive":true},{"name":"Kappiyarai","pincode":"629156","lat":8.23944,"lng":77.25965,"_id":"ca1c7364-a051-45ec-9932-f376d12b0cff","fee":50,"isActive":true},{"name":"Kappukadu","pincode":"629162","lat":8.3451335,"lng":77.18204,"_id":"c1f54f40-9f09-442c-bab2-ed75b4f67221","fee":50,"isActive":true},{"name":"Karankad","pincode":"629809","lat":8.2009908,"lng":77.3470948,"_id":"0dae0d2c-e4e7-4b42-a612-692977556a98","fee":50,"isActive":true},{"name":"Karinkal","pincode":"629157","lat":8.23944,"lng":77.27555,"_id":"5f424fba-20b6-4235-ab62-1b470abb9ef2","fee":50,"isActive":true},{"name":"Karod","pincode":"629151","lat":8.3441037,"lng":77.1815817,"_id":"f7c3f813-c8c4-4978-996a-def71561b2ac","fee":50,"isActive":true},{"name":"Kattathurai","pincode":"629158","lat":8.3223846,"lng":77.1729495,"_id":"3143eae1-ac7d-4c7c-86b1-f0a41df916e5","fee":50,"isActive":true},{"name":"Kattimancode","pincode":"629806","lat":8.3223856,"lng":77.1729485,"_id":"e3efa794-0a71-45ff-ac6b-a75285259d53","fee":50,"isActive":true},{"name":"Keeriparai","pincode":"629854","lat":8.23121,"lng":77.5060338,"_id":"67514be5-acf2-4a87-ad26-15a16e684320","fee":50,"isActive":true},{"name":"Keezhkulam","pincode":"629193","lat":8.3451345,"lng":77.182039,"_id":"073c3037-c593-4c63-9971-981278240cc2","fee":50,"isActive":true},{"name":"Keralapuram","pincode":"629174","lat":8.24258,"lng":77.301,"_id":"7992adc4-686a-4cc8-b8f8-1458a0f87b09","fee":50,"isActive":true},{"name":"Kesavanputhenthurai","pincode":"629501","lat":8.0883254,"lng":77.5384317,"_id":"418f44fd-b43d-45e7-9fea-d3bfa224e7c5","fee":50,"isActive":true},{"name":"Killiyoor","pincode":"629187","lat":8.3451335,"lng":77.18204,"_id":"ed0faefc-ad0e-47af-9cc8-75c43c627cef","fee":50,"isActive":true},{"name":"Kirathur","pincode":"629181","lat":8.23629,"lng":77.32965,"_id":"b3e4ee2e-7a28-41ec-bdc9-1286b497d2b7","fee":50,"isActive":true},{"name":"Kodayarkilthangal","pincode":"629102","lat":8.3223906,"lng":77.1729435,"_id":"b4937936-d39e-481c-b712-e4295c361567","fee":50,"isActive":true},{"name":"Kodimunai","pincode":"629251","lat":8.1767,"lng":77.26728,"_id":"19bf19ae-f3c6-48e7-8d1d-5b94de55b626","fee":50,"isActive":true},{"name":"Kollangodu","pincode":"629160","lat":8.3441087,"lng":77.1815767,"_id":"25a57b40-3629-4636-bb07-f9d7a212c8b6","fee":50,"isActive":true},{"name":"Konamkadu","pincode":"629803","lat":8.17649,"lng":77.3933,"_id":"bb05601b-4773-4817-ad94-c719f8d17d28","fee":50,"isActive":true},{"name":"Kottar","pincode":"629002","lat":8.20166,"lng":77.43785,"_id":"1b3d3484-a954-4e1e-8f3d-dca06a403cd7","fee":50,"isActive":true},{"name":"Kottaram","pincode":"629703","lat":8.107387,"lng":77.5221254,"_id":"38eb6533-8d9f-4dbf-83b0-6bc8dcdd849d","fee":50,"isActive":true},{"name":"Kovalam","pincode":"629702","lat":8.0914651,"lng":77.5184862,"_id":"fbc26244-854a-4a2d-b889-2fd88e572e36","fee":50,"isActive":true},{"name":"Kozhiporvilai","pincode":"629167","lat":8.2357382,"lng":77.3525289,"_id":"fbb71f8d-856d-4bd0-9c37-dea0716e15df","fee":50,"isActive":true},{"name":"Krishnancoil","pincode":"629001","lat":8.0978006,"lng":77.5203672,"_id":"10622a3b-e8a9-432f-b516-196f61df9339","fee":50,"isActive":true},{"name":"Kulapuram","pincode":"629153","lat":8.3451335,"lng":77.18204,"_id":"7c7f82f7-bf0d-4260-95a7-4c77bcfc6691","fee":50,"isActive":true},{"name":"Kulasekharam","pincode":"629161","lat":8.2543714,"lng":77.3393285,"_id":"8344d195-e3c6-4084-b499-5ef31dca4ad8","fee":50,"isActive":true},{"name":"Kulasekharapuram","pincode":"629403","lat":8.14816,"lng":77.5047,"_id":"580fd612-fb44-47ed-875f-a51e1de34bf4","fee":50,"isActive":true},{"name":"Kumaracoil","pincode":"629180","lat":8.2360645,"lng":77.3368351,"_id":"befee1ee-6408-4f29-ab59-3bb7184a4120","fee":50,"isActive":true},{"name":"Kumarapuram","pincode":"629301","lat":8.23629,"lng":77.3583,"_id":"4613b8ab-f111-47c4-aa60-1059fb0f0164","fee":50,"isActive":true},{"name":"Kumarapuram","pincode":"629189","lat":8.23629,"lng":77.3583,"_id":"520adaef-a7ac-4a5b-8e88-1b6224884c6b","fee":50,"isActive":true},{"name":"Kumarapuramthoppur","pincode":"629402","lat":8.23738,"lng":77.33989,"_id":"99f78357-623a-418d-beac-a6a550d43187","fee":50,"isActive":true},{"name":"Kurumpanai","pincode":"629251","lat":8.3223836,"lng":77.1729505,"_id":"e9a90528-818d-427b-992b-6c6a7807cce7","fee":50,"isActive":true},{"name":"Kurunthencode","pincode":"629805","lat":8.3223866,"lng":77.1729475,"_id":"14474f9d-1989-413a-9b77-ba437001f630","fee":50,"isActive":true},{"name":"Kuzhicode","pincode":"629167","lat":8.2835,"lng":77.36465,"_id":"878c2378-212c-4176-a035-bf30c43cf783","fee":50,"isActive":true},{"name":"Kuzhithurai","pincode":"629163","lat":8.3187105,"lng":77.2058091,"_id":"8356d4f0-f5a7-4564-ad51-e90eb71e2adf","fee":50,"isActive":true},{"name":"Kuzhithurai West","pincode":"629163","lat":8.3162984,"lng":77.1916337,"_id":"2495c370-9766-405b-a42b-5314f97c50a0","fee":50,"isActive":true},{"name":"Leepuram","pincode":"629702","lat":8.0977966,"lng":77.5203712,"_id":"0952e457-9ef6-44a6-add3-d0b9bdd1441a","fee":50,"isActive":true},{"name":"Lekshmipuram","pincode":"629802","lat":8.20481,"lng":77.27235,"_id":"9b2f2797-3480-4105-9f0e-a4b523f03df7","fee":50,"isActive":true},{"name":"Madathattuvilai","pincode":"629180","lat":8.2174,"lng":77.36465,"_id":"2ed1764d-903c-4e0b-ae04-ce829b6334f3","fee":50,"isActive":true},{"name":"Madavalayam","pincode":"629302","lat":8.2298658,"lng":77.4847731,"_id":"e4d6bd70-82f5-4c79-9eb2-d44ff4d77571","fee":50,"isActive":true},{"name":"Madichel","pincode":"629163","lat":8.31497,"lng":77.1991,"_id":"1585f880-b16e-4baf-aba5-d9f3d5eeb4d3","fee":50,"isActive":true},{"name":"Mahadanapuram","pincode":"629702","lat":8.1098678,"lng":77.5412947,"_id":"301bc4c7-bd77-4621-aee4-d9e99ce1f77c","fee":50,"isActive":true},{"name":"Malamary","pincode":"629152","lat":8.38834,"lng":77.2023,"_id":"a98adb52-2112-461c-8552-e2c8b777e042","fee":50,"isActive":true},{"name":"Malayadi","pincode":"629153","lat":8.3608771,"lng":77.1794004,"_id":"b6e21aa4-91d5-4e16-9373-10007800f60d","fee":50,"isActive":true},{"name":"Manakarai","pincode":"629180","lat":8.2174,"lng":77.36465,"_id":"aa92c2df-a008-4319-932a-d21d542ed639","fee":50,"isActive":true},{"name":"Manalikarai","pincode":"629164","lat":8.3223846,"lng":77.1729495,"_id":"b9f18402-b18e-4946-8f40-5e8ca8fb6904","fee":50,"isActive":true},{"name":"Manalodai","pincode":"629161","lat":8.3223826,"lng":77.1729515,"_id":"ad12d8c3-8915-4415-a119-7dd2ea56cef1","fee":50,"isActive":true},{"name":"Manavalakurichi","pincode":"629252","lat":8.1471595,"lng":77.3022718,"_id":"8bb61d23-f457-4fce-8de2-95feeb658fa7","fee":50,"isActive":true},{"name":"Mancode","pincode":"629152","lat":8.3451315,"lng":77.182042,"_id":"a934807d-1d93-4d44-a408-7725d17862cf","fee":50,"isActive":true},{"name":"Mangalakunnu","pincode":"629178","lat":8.3441107,"lng":77.1815747,"_id":"60b251f5-a93e-45a5-b09b-b9b156d358ea","fee":50,"isActive":true},{"name":"Mangarai","pincode":"629157","lat":8.3441067,"lng":77.1815787,"_id":"96216fd9-916a-46d5-8f87-0f736e712178","fee":50,"isActive":true},{"name":"Mangavilai","pincode":"629501","lat":8.0977986,"lng":77.5203692,"_id":"0d29cb66-b15a-493f-b2c9-44fca692b185","fee":50,"isActive":true},{"name":"Maniankuzhi","pincode":"629161","lat":8.20377,"lng":77.33415,"_id":"66f099d9-2967-419b-9044-debd132ea9f4","fee":50,"isActive":true},{"name":"Manivilai","pincode":"629170","lat":8.36495,"lng":77.17072,"_id":"d7780f94-0e7b-49f5-afa7-629f05010cfd","fee":50,"isActive":true},{"name":"Manjalumoodu","pincode":"629151","lat":8.3441107,"lng":77.1815747,"_id":"30855de2-7226-4032-8f67-002d58d6cb5b","fee":50,"isActive":true},{"name":"Maramalai","pincode":"629851","lat":8.3223826,"lng":77.1729515,"_id":"bbabc7b6-e230-466d-87f3-f8aeaf302b14","fee":50,"isActive":true},{"name":"Maravankudiyiruppu","pincode":"629002","lat":8.20166,"lng":77.43785,"_id":"84e76bd4-c298-42e4-abaa-f5475ff23144","fee":50,"isActive":true},{"name":"Marthandam","pincode":"629165","lat":8.3187095,"lng":77.2058101,"_id":"f88c802f-cf32-4ae0-884e-014c76dea885","fee":50,"isActive":true},{"name":"Marthandam Bridge","pincode":"629165","lat":8.3039269,"lng":77.2232539,"_id":"0af3d39a-580e-4b94-b79b-cbb77c78de21","fee":50,"isActive":true},{"name":"Marthandam North","pincode":"629165","lat":8.29294,"lng":77.2182,"_id":"2c55241b-d802-40e9-b724-da7c1a27dbe5","fee":50,"isActive":true},{"name":"Marthandamthurai","pincode":"629160","lat":8.3441147,"lng":77.1815707,"_id":"b690c1cb-b03b-405f-86de-5518ce973b6c","fee":50,"isActive":true},{"name":"Marungoor","pincode":"629402","lat":8.23738,"lng":77.33989,"_id":"9b229cd8-f660-4dae-9552-09a68396e7fd","fee":50,"isActive":true},{"name":"Maruthemparai","pincode":"629101","lat":8.3451375,"lng":77.182036,"_id":"7a1a30b3-d141-4156-bbd3-791cda180dac","fee":50,"isActive":true},{"name":"Maruthencode","pincode":"629163","lat":8.3379247,"lng":77.1973877,"_id":"ce6eb440-0529-4838-8777-afcf0701e14d","fee":50,"isActive":true},{"name":"Maruthurkurichi","pincode":"629158","lat":8.3223886,"lng":77.1729455,"_id":"70dd297d-9662-4fd1-9cca-65d8000e5d85","fee":50,"isActive":true},{"name":"Mathiasnagar","pincode":"629852","lat":8.28979,"lng":77.3997,"_id":"ab184a4e-b1a1-4c82-a65a-594c7b4db84a","fee":50,"isActive":true},{"name":"Mayiladi","pincode":"629403","lat":8.14816,"lng":77.5047,"_id":"12aa64a7-6480-40b4-9895-069bd4f47ab9","fee":50,"isActive":true},{"name":"Meenachel","pincode":"629153","lat":8.3441077,"lng":77.1815777,"_id":"da30ccd1-df23-4d8f-b845-84a70466ebfd","fee":50,"isActive":true},{"name":"Mekkamandapam","pincode":"629166","lat":8.3223866,"lng":77.1729475,"_id":"aa6c7ce7-7ba0-4edd-8117-963239748cc7","fee":50,"isActive":true},{"name":"Mekkode","pincode":"629804","lat":8.3223806,"lng":77.1729535,"_id":"5996353e-6c70-4578-af2d-b5644a36d42a","fee":50,"isActive":true},{"name":"Melakrishnanputhur","pincode":"629601","lat":8.13872,"lng":77.46015,"_id":"21bca8e0-ed38-4d05-bccc-574535e2c260","fee":50,"isActive":true},{"name":"Melamanakudy","pincode":"629602","lat":8.0978006,"lng":77.5203672,"_id":"da738b4a-c98e-4300-a6ec-8f226cfd869f","fee":50,"isActive":true},{"name":"Methukummal","pincode":"629172","lat":8.3451355,"lng":77.182038,"_id":"3b1fb83b-1e98-4ca8-9f76-7c9f4ddb7bad","fee":50,"isActive":true},{"name":"Mettukadai","pincode":"629175","lat":8.2456862,"lng":77.3156304,"_id":"c17eafc3-6211-46dd-9483-4b808a6d3d5a","fee":50,"isActive":true},{"name":"Mondaikad","pincode":"629252","lat":8.16075,"lng":77.3169,"_id":"713fdf52-5378-422d-b080-1298a2f159f3","fee":50,"isActive":true},{"name":"Monikettipottal","pincode":"629501","lat":8.0978036,"lng":77.5203642,"_id":"9e783b82-456c-46e4-b99f-c926f40825a9","fee":50,"isActive":true},{"name":"Moovattumugham","pincode":"629177","lat":8.2357392,"lng":77.3525279,"_id":"626453d5-7996-4e9e-b7cc-26f41f913e6f","fee":50,"isActive":true},{"name":"Mukkampala","pincode":"629164","lat":8.2357352,"lng":77.3525319,"_id":"54816c54-0998-4ef4-afc1-1e81a08d33ab","fee":50,"isActive":true},{"name":"Mulachel","pincode":"629175","lat":8.30238,"lng":77.2978,"_id":"60de7c54-0d35-4786-ae04-45ff7247e4f4","fee":50,"isActive":true},{"name":"Mulagumoodu","pincode":"629167","lat":8.2835,"lng":77.36465,"_id":"66b32adf-e615-4cdb-bd45-f8e002ebf71f","fee":50,"isActive":true},{"name":"Mulankuzhi","pincode":"629162","lat":8.3441087,"lng":77.1815767,"_id":"6bcd0333-6f13-4265-abfc-01d415d45fbb","fee":50,"isActive":true},{"name":"Mullanginavilai","pincode":"629157","lat":8.3441137,"lng":77.1815717,"_id":"bda59a6f-a513-4d6e-a1e7-9f97644f5bc8","fee":50,"isActive":true},{"name":"Munchirai","pincode":"629171","lat":8.3451335,"lng":77.18204,"_id":"40417761-0c77-41c7-89d5-79edb0240153","fee":50,"isActive":true},{"name":"Muttom","pincode":"629202","lat":8.3223796,"lng":77.1729545,"_id":"11078491-dbcc-437b-a44b-b56e641fbc0a","fee":50,"isActive":true},{"name":"Nagercoil","pincode":"629001","lat":8.0985095,"lng":77.5083857,"_id":"296b4709-00d4-42f1-a3d0-7d4081a5e3f1","fee":50,"isActive":true},{"name":"Nagercoil Bazaar","pincode":"629001","lat":8.170016,"lng":77.429984,"_id":"b1a02378-9b58-43be-87c5-a430d862adfd","fee":50,"isActive":true},{"name":"Nagercoil Collectorate","pincode":"629001","lat":8.170022,"lng":77.429978,"_id":"5d06d6bc-c218-43c9-a807-00e95fa0f04c","fee":50,"isActive":true},{"name":"Nagercoil Industrial Estate","pincode":"629004","lat":8.170027,"lng":77.429973,"_id":"3ee7f2c8-3ccc-422c-a6ab-2d38c1ebeec5","fee":50,"isActive":true},{"name":"Nagercoil Town","pincode":"629001","lat":8.170014,"lng":77.429986,"_id":"d136d5ee-3296-4cd2-8b7e-183442188d70","fee":50,"isActive":true},{"name":"Nagercoil West","pincode":"629001","lat":8.20481,"lng":77.4283,"_id":"deaf04de-861f-47b0-b2e9-05039374e716","fee":50,"isActive":true},{"name":"Nallur","pincode":"629704","lat":8.15446,"lng":77.4697,"_id":"234643e9-70a7-49c7-9ddc-ffc10fe72300","fee":50,"isActive":true},{"name":"Nallur-marthandam","pincode":"629165","lat":8.29294,"lng":77.2182,"_id":"e084ff4d-42ee-4fdc-83bb-607ed1b9f874","fee":50,"isActive":true},{"name":"Nattalam","pincode":"629195","lat":8.3451325,"lng":77.182041,"_id":"2173409f-e46d-4e9c-800d-4d441ae284fc","fee":50,"isActive":true},{"name":"Nesamony Nagar","pincode":"629001","lat":8.20481,"lng":77.4283,"_id":"667e15ff-16ba-4fab-852e-2374396bc22e","fee":50,"isActive":true},{"name":"Netta","pincode":"629101","lat":8.47549,"lng":77.26346,"_id":"e4d90ff8-eaaf-401b-ba9e-ec878018bbdb","fee":50,"isActive":true},{"name":"Neyyoor","pincode":"629802","lat":8.3223806,"lng":77.1729535,"_id":"5bc0f18f-ff5c-4074-9a90-9aec6e8104cb","fee":50,"isActive":true},{"name":"Neyyoor West","pincode":"629803","lat":8.2113889,"lng":77.3030631,"_id":"6a3dce46-d4ad-414d-a6bc-643fe1fd319a","fee":50,"isActive":true},{"name":"Nithiravilai","pincode":"629154","lat":8.3441107,"lng":77.1815747,"_id":"2a2ac40d-ac39-495c-8f55-ab976389d8bd","fee":50,"isActive":true},{"name":"North Soorankudy","pincode":"629501","lat":8.12684,"lng":77.38055,"_id":"3bc81756-1f6f-496b-ab21-f11ed9cb495e","fee":50,"isActive":true},{"name":"Oluganacheri","pincode":"629001","lat":8.20481,"lng":77.4283,"_id":"4448f93c-fdf3-4ff4-89a3-5328d068771b","fee":50,"isActive":true},{"name":"Pacode","pincode":"629168","lat":8.3355027,"lng":77.1697478,"_id":"21d5ae11-c61f-4663-a9a3-1f69987209ed","fee":50,"isActive":true},{"name":"Padanthalumoodu","pincode":"629194","lat":8.3282422,"lng":77.1867802,"_id":"b8f0f761-06f0-42cd-b3be-01771fa71deb","fee":50,"isActive":true},{"name":"Padmanabhapuram Fort","pincode":"629175","lat":8.243388,"lng":77.321589,"_id":"55947d23-6556-473e-8565-3259390fc1a7","fee":50,"isActive":true},{"name":"Painkulam","pincode":"629188","lat":8.2527855,"lng":77.172438,"_id":"c789559a-c58d-4dfb-869e-59c06abf191e","fee":50,"isActive":true},{"name":"Palapalam","pincode":"629159","lat":8.3451335,"lng":77.18204,"_id":"07fdfd75-ec03-47e4-9686-41fd1b3d0f13","fee":50,"isActive":true},{"name":"Palavilai","pincode":"629160","lat":8.3451335,"lng":77.18204,"_id":"661747f4-8d07-4de3-b2bc-a94e1dd54d29","fee":50,"isActive":true},{"name":"Palkulam","pincode":"629851","lat":8.231208,"lng":77.5060358,"_id":"e6cbfe87-2f58-45a7-995e-9a6a6229d7c2","fee":50,"isActive":true},{"name":"Pallam","pincode":"629601","lat":8.0977946,"lng":77.5203732,"_id":"dfa64483-6c8e-4604-a6ec-f5839df6d31e","fee":50,"isActive":true},{"name":"Palliyadi","pincode":"629169","lat":8.3451335,"lng":77.18204,"_id":"a28956db-9519-43bf-9a70-37466e5673cf","fee":50,"isActive":true},{"name":"Palukal","pincode":"629170","lat":8.3441057,"lng":77.1815797,"_id":"d312e3a8-ab1b-4aae-977a-049c8c58d174","fee":50,"isActive":true},{"name":"Parakkai","pincode":"629601","lat":8.0977966,"lng":77.5203712,"_id":"7d84a3c5-892a-4929-b7aa-8a136eafbfd2","fee":50,"isActive":true},{"name":"Parvathipuram","pincode":"629003","lat":8.0978016,"lng":77.5203662,"_id":"e97b5240-e7fe-4798-a976-23f2c17d0f7e","fee":50,"isActive":true},{"name":"Pathukani","pincode":"629101","lat":8.47549,"lng":77.26346,"_id":"1cc9250f-bfe0-4d32-ac24-6e750fc8d3e6","fee":50,"isActive":true},{"name":"Pazhavilai","pincode":"629501","lat":8.0977986,"lng":77.5203692,"_id":"fa0e8035-4b92-46ab-b649-b06c10f920fa","fee":50,"isActive":true},{"name":"Pechchipparai","pincode":"629161","lat":8.20377,"lng":77.33415,"_id":"7a06f68d-36ec-45b3-8d34-386e2604b400","fee":50,"isActive":true},{"name":"Peruvilai","pincode":"629003","lat":8.1849286,"lng":77.3970264,"_id":"0c6cbdaf-70e1-4271-99ea-aa5a36ab28b7","fee":50,"isActive":true},{"name":"Peyankuzhi","pincode":"629809","lat":8.18278,"lng":77.40605,"_id":"31bc9a4f-bff3-400b-a5cf-17a0fb4685b9","fee":50,"isActive":true},{"name":"Ponmanai","pincode":"629161","lat":8.3502778,"lng":77.3258333,"_id":"095e5264-a955-495c-8e79-9e4ba450f390","fee":50,"isActive":true},{"name":"Poothurai","pincode":"629176","lat":8.3451335,"lng":77.18204,"_id":"93191a86-a7c2-4ef4-8a43-56c5a750c6be","fee":50,"isActive":true},{"name":"Potraiyadi","pincode":"629703","lat":8.0977986,"lng":77.5203692,"_id":"b41c5217-c746-4cdd-bda1-905d49475023","fee":50,"isActive":true},{"name":"Pottakulam","pincode":"629401","lat":8.16704,"lng":77.53121,"_id":"f2f1bb3e-5ec4-4d99-a750-5c934f177809","fee":50,"isActive":true},{"name":"Pottetty","pincode":"629157","lat":8.23944,"lng":77.27555,"_id":"5e71a356-95c4-460a-8732-c79d3bd13507","fee":50,"isActive":true},{"name":"Pozhikkarai","pincode":"629501","lat":8.0977996,"lng":77.5203682,"_id":"1e72722d-03ad-4180-b69e-a781e6f22bc2","fee":50,"isActive":true},{"name":"Pudukadai","pincode":"629171","lat":8.3451335,"lng":77.18204,"_id":"2d860017-9394-4f2f-aaba-8c25d4b418a6","fee":50,"isActive":true},{"name":"Puliyurkurichi","pincode":"629175","lat":8.3223876,"lng":77.1729465,"_id":"5a0fa432-a6e3-43e6-b5b4-06ee0d8b83b8","fee":50,"isActive":true},{"name":"Puthalam","pincode":"629602","lat":8.0977966,"lng":77.5203712,"_id":"a5865413-1870-4a3d-9dd5-f986373bed23","fee":50,"isActive":true},{"name":"Puthenthurai","pincode":"629501","lat":8.0978006,"lng":77.5203672,"_id":"bcc4d21a-b9ec-41c3-8e0d-a1c20b77af09","fee":50,"isActive":true},{"name":"Putheri","pincode":"629001","lat":8.0977956,"lng":77.5203722,"_id":"2315dd31-51d8-4bbb-8472-843037e3a901","fee":50,"isActive":true},{"name":"Rajakkamangalam","pincode":"629502","lat":8.1290447,"lng":77.3640107,"_id":"b7a51da7-7e40-4c8d-b50a-039f14208cdc","fee":50,"isActive":true},{"name":"Rajakkamangalamthurai","pincode":"629501","lat":8.0978096,"lng":77.5203582,"_id":"17784394-8103-4e4a-ab6a-1f4918ba3f56","fee":50,"isActive":true},{"name":"Ramanthurai","pincode":"629193","lat":8.3441097,"lng":77.1815757,"_id":"d42de83d-094e-4469-a07c-315fd2cfd87a","fee":50,"isActive":true},{"name":"Ramapuram","pincode":"629303","lat":8.32534,"lng":77.34488,"_id":"845af0e0-fc12-406a-bdbe-0c86b2753577","fee":50,"isActive":true},{"name":"Ramavarmanchirai","pincode":"629152","lat":8.3451405,"lng":77.182033,"_id":"0723494f-57c3-4272-84a7-4b145a7a0330","fee":50,"isActive":true},{"name":"Ratnapuram","pincode":"629851","lat":8.23121,"lng":77.5060338,"_id":"c91b961f-c802-49b7-89e0-4b8b6091c1ba","fee":50,"isActive":true},{"name":"Ritapuram","pincode":"629159","lat":8.2357342,"lng":77.3525329,"_id":"04dab2bc-4121-484d-8347-9ca79c937026","fee":50,"isActive":true},{"name":"S.T.Mankad","pincode":"629172","lat":8.24573,"lng":77.31695,"_id":"dbb153bb-d3b1-4f77-818c-267d4c9bf1e5","fee":50,"isActive":true},{"name":"Sahayanagar","pincode":"629159","lat":8.3441097,"lng":77.1815757,"_id":"fe234cca-6731-4181-a7fd-5274b94fa30d","fee":50,"isActive":true},{"name":"Santhaiyadi","pincode":"629703","lat":8.0977996,"lng":77.5203682,"_id":"3e429a25-8b14-4df6-835e-ff76fea94d15","fee":50,"isActive":true},{"name":"Santhapuram","pincode":"629201","lat":8.0977996,"lng":77.5203682,"_id":"19b9b94c-9667-4e5d-910b-498ba51b2159","fee":50,"isActive":true},{"name":"Saral Agasteeswaram","pincode":"629203","lat":8.20166,"lng":77.45055,"_id":"41672cef-8d82-465c-8f39-766ded8d62c4","fee":50,"isActive":true},{"name":"Sasthankcoilvilai","pincode":"629704","lat":8.0978056,"lng":77.5203622,"_id":"ddc241d3-795e-4b86-a41a-4bfcccb8d99c","fee":50,"isActive":true},{"name":"Sooriacode","pincode":"629190","lat":8.311102,"lng":77.1556963,"_id":"dcf948e5-651a-4482-9173-fabab56a07e3","fee":50,"isActive":true},{"name":"South Soorankudy","pincode":"629501","lat":8.12684,"lng":77.38055,"_id":"90c2b8e4-bd2e-4d06-b702-e574a35a77de","fee":50,"isActive":true},{"name":"Suchindrum","pincode":"629704","lat":8.15446,"lng":77.4697,"_id":"af575a62-bd16-4ad3-8453-3c3d2aee4140","fee":50,"isActive":true},{"name":"Terur","pincode":"629704","lat":8.0977936,"lng":77.5203742,"_id":"e5850409-c570-45d2-947b-89ef77ac93a3","fee":50,"isActive":true},{"name":"Thadikarankonam","pincode":"629851","lat":8.231215,"lng":77.5060288,"_id":"2ba211e0-1e6a-408b-96d1-248773283c9e","fee":50,"isActive":true},{"name":"Thalakulam","pincode":"629802","lat":8.198366,"lng":77.3046049,"_id":"ab5108e6-3b03-4d38-9d7e-97f21751fc4b","fee":50,"isActive":true},{"name":"Thamaraikulam","pincode":"629707","lat":8.1000988,"lng":77.51465,"_id":"9142aee8-dc64-4c29-9e8c-ca9167e734d9","fee":50,"isActive":true},{"name":"Thazhakudy","pincode":"629901","lat":8.23121,"lng":77.5060338,"_id":"b59b7be0-e5fb-45d7-a1a5-74a58c31bf5b","fee":50,"isActive":true},{"name":"Thengamputhur","pincode":"629603","lat":8.0978016,"lng":77.5203662,"_id":"bd176d25-3caa-45b5-9c58-06f4f2b0ae27","fee":50,"isActive":true},{"name":"Thengapattanam","pincode":"629173","lat":8.3451385,"lng":77.182035,"_id":"e606604e-c0cc-4ab7-b28a-9cb7e15f9f11","fee":50,"isActive":true},{"name":"Therku Thamaraikulam","pincode":"629708","lat":8.10544,"lng":77.49649,"_id":"2eb8a0c1-90f5-4628-9350-a19224dd6e36","fee":50,"isActive":true},{"name":"Theruvukadai","pincode":"629157","lat":8.3451365,"lng":77.182037,"_id":"b45c8d63-900d-4d2f-8e04-4230615c462c","fee":50,"isActive":true},{"name":"Thickanamcode","pincode":"629804","lat":8.2211696,"lng":77.2735469,"_id":"6a7f73be-2289-4d25-a21f-811c9b6a2ed0","fee":50,"isActive":true},{"name":"Thickurichy","pincode":"629168","lat":8.31183,"lng":77.2278,"_id":"25790f35-ced6-40de-b5d0-aee7fd58d176","fee":50,"isActive":true},{"name":"Thirupathisaram","pincode":"629901","lat":8.231215,"lng":77.5060288,"_id":"af40f4a2-4219-4093-9fa7-60daaaa7262b","fee":50,"isActive":true},{"name":"Thiruthuvapuram","pincode":"629163","lat":8.31497,"lng":77.1991,"_id":"5bacef3c-2b04-4852-9d67-18f3061d5f19","fee":50,"isActive":true},{"name":"Thiruvarambu","pincode":"629183","lat":8.2357372,"lng":77.3525299,"_id":"3a005958-a2c7-4c46-b1f8-0904fb1aedcf","fee":50,"isActive":true},{"name":"Thiruvithancode","pincode":"629174","lat":8.3223886,"lng":77.1729455,"_id":"bfad6b93-f2e0-49da-a7da-a7f8c725ffef","fee":50,"isActive":true},{"name":"Tholayavattai","pincode":"629157","lat":8.3451375,"lng":77.182036,"_id":"57f06548-80f7-4652-b62d-a4e3906d3394","fee":50,"isActive":true},{"name":"Thovalai","pincode":"629302","lat":8.2281483,"lng":77.5059996,"_id":"e3581814-8297-4d8d-a278-2cf3c00eca6a","fee":50,"isActive":true},{"name":"Thuckalay","pincode":"629175","lat":8.30238,"lng":77.2978,"_id":"13f74d5f-f3c1-479e-b6bb-84eb513a322e","fee":50,"isActive":true},{"name":"Thumbode","pincode":"629161","lat":8.20377,"lng":77.33415,"_id":"ce3413d2-7d06-4dfd-b43c-de6ffe613334","fee":50,"isActive":true},{"name":"Thuthur","pincode":"629176","lat":8.3451315,"lng":77.182042,"_id":"b860c8b8-4154-43a4-906f-d3c29803898d","fee":50,"isActive":true},{"name":"Tiruparappu","pincode":"629161","lat":8.20377,"lng":77.33415,"_id":"d2e22130-c827-4b68-ac14-8a6d723a67d3","fee":50,"isActive":true},{"name":"Tiruvattar","pincode":"629177","lat":8.2151744,"lng":77.3014577,"_id":"cda1a7dc-3f44-47bf-a3df-b745ffce11f5","fee":50,"isActive":true},{"name":"Tittivilai","pincode":"629852","lat":8.28979,"lng":77.3997,"_id":"3718137c-a3a6-4c55-b500-7c262a85fcff","fee":50,"isActive":true},{"name":"Udayamarthandam","pincode":"629178","lat":8.25831,"lng":77.301,"_id":"570b8691-6554-4dcd-94a5-3edf35c5425c","fee":50,"isActive":true},{"name":"Unnamalakada","pincode":"629179","lat":8.3451365,"lng":77.182037,"_id":"a7cdf8ef-970f-4f1d-ab7e-e4ad42b106b7","fee":50,"isActive":true},{"name":"Urambu","pincode":"629160","lat":8.3441047,"lng":77.1815807,"_id":"d931c571-d0ac-433e-b3da-3256e9021d70","fee":50,"isActive":true},{"name":"Vadasery","pincode":"629001","lat":8.20481,"lng":77.4283,"_id":"44292f5e-75cf-4f50-9130-15a4f4bc4189","fee":50,"isActive":true},{"name":"Vadiveeswaram","pincode":"629001","lat":8.20481,"lng":77.4283,"_id":"068c1ccb-e232-4a60-a2df-fc315adbaf6f","fee":50,"isActive":true},{"name":"Vallavilai","pincode":"629160","lat":8.2814656,"lng":77.1142872,"_id":"4b68a272-094f-4f39-b500-19d43501e4bf","fee":50,"isActive":true},{"name":"Vaniyakudi","pincode":"629251","lat":8.3223836,"lng":77.1729505,"_id":"48392394-e751-46a4-833c-f6f06ce9cc45","fee":50,"isActive":true},{"name":"Vanniyur","pincode":"629163","lat":8.3415073,"lng":77.1859128,"_id":"bc418344-98ad-400a-8a37-4a0310ed3873","fee":50,"isActive":true},{"name":"Variyoor","pincode":"629401","lat":8.0977966,"lng":77.5203712,"_id":"6a02498b-132d-4842-a67d-216cc757ffe4","fee":50,"isActive":true},{"name":"Vazhukkamparai","pincode":"629704","lat":8.15446,"lng":77.4697,"_id":"fb66cdd8-2338-420f-8c41-1ae73528c41e","fee":50,"isActive":true},{"name":"Veeyannur","pincode":"629177","lat":8.2149374,"lng":77.4305647,"_id":"3e732232-3b56-47b2-b7b0-a6490e2ba7fc","fee":50,"isActive":true},{"name":"Velimalai","pincode":"629164","lat":8.2434415,"lng":77.3501104,"_id":"af2b634f-cc9c-4589-8527-4e4258ae7cd5","fee":50,"isActive":true},{"name":"Vellachiparai","pincode":"629152","lat":8.3451375,"lng":77.182036,"_id":"efe9e1e0-5e8f-4bfb-a7bc-5d5f6e2e86ea","fee":50,"isActive":true},{"name":"Vellamadam","pincode":"629305","lat":8.2114741,"lng":77.4640921,"_id":"f62bbd46-43c2-45f7-b47f-c2173f8141cc","fee":50,"isActive":true},{"name":"Vembanur","pincode":"629801","lat":8.19537,"lng":77.3774,"_id":"fdd1ab14-0592-4b5c-b65e-5aaadb75d753","fee":50,"isActive":true},{"name":"Vencode","pincode":"629171","lat":8.3451315,"lng":77.182042,"_id":"dbcb8f2f-0f4f-4b52-bbaf-584d0f90369c","fee":50,"isActive":true},{"name":"Vendalicode","pincode":"629161","lat":8.20377,"lng":77.33415,"_id":"5b525a5d-3a61-4d45-9315-cb8838e3770a","fee":50,"isActive":true},{"name":"Verkilambi","pincode":"629166","lat":8.3223836,"lng":77.1729505,"_id":"3eee3f23-3254-4ef3-b504-5d4dfe74d63f","fee":50,"isActive":true},{"name":"Vetturnimadam","pincode":"629003","lat":8.0978016,"lng":77.5203662,"_id":"7e1a201d-0ebc-485f-a3d1-0860949f2675","fee":50,"isActive":true},{"name":"Villukuri","pincode":"629180","lat":8.2316162,"lng":77.3425555,"_id":"95fa8aa1-b4d0-4c6f-868e-d24ba4a7ec99","fee":50,"isActive":true},{"name":"Viricode","pincode":"629165","lat":8.3441067,"lng":77.1815787,"_id":"1ac10815-2a55-44b5-beae-9606809498e0","fee":50,"isActive":true},{"name":"Vivekanandapuram","pincode":"629702","lat":8.10187,"lng":77.54193,"_id":"51d4b83e-e794-432b-b5eb-c8cc9dceb10c","fee":50,"isActive":true},{"name":"Vizhunthaiyambalam","pincode":"629173","lat":8.0883244,"lng":77.5384327,"_id":"05e75859-83b7-461e-979f-ae3f782929fa","fee":50,"isActive":true}]